<?xml version="1.0" encoding="UTF-8"?>
<gpx creator="StravaGPX" version="1.1" xmlns="http://www.topografix.com/GPX/1/1" xmlns:xsi="http://www.w3.org/2001/XMLSchema-instance" xsi:schemaLocation="http://www.topografix.com/GPX/1/1 http://www.topografix.com/GPX/1/1/gpx.xsd">
 <metadata>
  <name>26k(16mi at 16y.o.)-2023-08-01</name>
  <author>
   <name>Hlieb Boiarkin</name>
   <link href="https://www.strava.com/athletes/104899816"/>
  </author>
  <copyright author="OpenStreetMap contributors">
   <year>2020</year>
   <license>https://www.openstreetmap.org/copyright</license>
  </copyright>
  <link href="https://www.strava.com/routes/3473786012048294036"/>
 </metadata>
 <trk>
  <name>26k(16mi at 16y.o.)-2023-08-01</name>
  <link href="https://www.strava.com/routes/3473786012048294036"/>
  <type>running</type>
  <trkseg>
   <trkpt lat="38.75542" lon="-9.09411">
    <ele>7.130000000000001</ele>
   </trkpt>
   <trkpt lat="38.75477" lon="-9.09429">
    <ele>6.890000000000001</ele>
   </trkpt>
   <trkpt lat="38.754760000000005" lon="-9.09426">
    <ele>6.8100000000000005</ele>
   </trkpt>
   <trkpt lat="38.75431000021235" lon="-9.094370000654184">
    <ele>6.78</ele>
   </trkpt>
   <trkpt lat="38.75386" lon="-9.09448">
    <ele>6.880000000000001</ele>
   </trkpt>
   <trkpt lat="38.753016251697666" lon="-9.094718769754577">
    <ele>6.630000000000001</ele>
   </trkpt>
   <trkpt lat="38.752172502909616" lon="-9.094957533864566">
    <ele>6.410000000000001</ele>
   </trkpt>
   <trkpt lat="38.75132875363585" lon="-9.095196292330264">
    <ele>6.55</ele>
   </trkpt>
   <trkpt lat="38.750485003876435" lon="-9.095435045151975">
    <ele>6.53</ele>
   </trkpt>
   <trkpt lat="38.74964125363137" lon="-9.095673792329997">
    <ele>6.55</ele>
   </trkpt>
   <trkpt lat="38.74879750290069" lon="-9.09591253386463">
    <ele>6.57</ele>
   </trkpt>
   <trkpt lat="38.7479537516844" lon="-9.096151269756175">
    <ele>6.44</ele>
   </trkpt>
   <trkpt lat="38.747110000000006" lon="-9.096390000000001">
    <ele>6.280000000000001</ele>
   </trkpt>
   <trkpt lat="38.74635400072981" lon="-9.096596008722928">
    <ele>6.08</ele>
   </trkpt>
   <trkpt lat="38.74559800109806" lon="-9.096802013083268">
    <ele>6.04</ele>
   </trkpt>
   <trkpt lat="38.74484200110476" lon="-9.097008013081226">
    <ele>5.970000000000001</ele>
   </trkpt>
   <trkpt lat="38.74408600074995" lon="-9.097214008717016">
    <ele>5.930000000000001</ele>
   </trkpt>
   <trkpt lat="38.74333" lon="-9.097420000000001">
    <ele>6.010000000000001</ele>
   </trkpt>
   <trkpt lat="38.743430000000004" lon="-9.09774">
    <ele>6.970000000000001</ele>
   </trkpt>
   <trkpt lat="38.74347" lon="-9.098120000000002">
    <ele>8.010000000000002</ele>
   </trkpt>
   <trkpt lat="38.74315" lon="-9.09834">
    <ele>7.450000000000001</ele>
   </trkpt>
   <trkpt lat="38.742940000000004" lon="-9.09853">
    <ele>7.08</ele>
   </trkpt>
   <trkpt lat="38.74275" lon="-9.09876">
    <ele>7.010000000000001</ele>
   </trkpt>
   <trkpt lat="38.742610000000006" lon="-9.09904">
    <ele>7.180000000000001</ele>
   </trkpt>
   <trkpt lat="38.742520000000006" lon="-9.0991">
    <ele>7.180000000000001</ele>
   </trkpt>
   <trkpt lat="38.74237" lon="-9.09942">
    <ele>7.3500000000000005</ele>
   </trkpt>
   <trkpt lat="38.74237" lon="-9.09952">
    <ele>7.3500000000000005</ele>
   </trkpt>
   <trkpt lat="38.742430000000006" lon="-9.099630000000001">
    <ele>7.51</ele>
   </trkpt>
   <trkpt lat="38.74231" lon="-9.0997">
    <ele>7.430000000000001</ele>
   </trkpt>
   <trkpt lat="38.74226" lon="-9.09975">
    <ele>7.430000000000001</ele>
   </trkpt>
   <trkpt lat="38.74222" lon="-9.09983">
    <ele>7.430000000000001</ele>
   </trkpt>
   <trkpt lat="38.742090000000005" lon="-9.0999">
    <ele>7.51</ele>
   </trkpt>
   <trkpt lat="38.741780000000006" lon="-9.10036">
    <ele>7.580000000000001</ele>
   </trkpt>
   <trkpt lat="38.74163" lon="-9.10054">
    <ele>7.48</ele>
   </trkpt>
   <trkpt lat="38.74121" lon="-9.10086">
    <ele>7.6000000000000005</ele>
   </trkpt>
   <trkpt lat="38.74059250184222" lon="-9.101237509779567">
    <ele>7.750000000000001</ele>
   </trkpt>
   <trkpt lat="38.73997500247035" lon="-9.101615013030644">
    <ele>7.7700000000000005</ele>
   </trkpt>
   <trkpt lat="38.739357501884456" lon="-9.101992509753474">
    <ele>7.88</ele>
   </trkpt>
   <trkpt lat="38.73874" lon="-9.10237">
    <ele>7.99</ele>
   </trkpt>
   <trkpt lat="38.738080000000004" lon="-9.1027">
    <ele>7.8900000000000015</ele>
   </trkpt>
   <trkpt lat="38.737860000000005" lon="-9.1028">
    <ele>7.94</ele>
   </trkpt>
   <trkpt lat="38.73709000035199" lon="-9.103105003305732">
    <ele>7.9</ele>
   </trkpt>
   <trkpt lat="38.736320000000006" lon="-9.10341">
    <ele>7.840000000000002</ele>
   </trkpt>
   <trkpt lat="38.73581" lon="-9.10355">
    <ele>7.9700000000000015</ele>
   </trkpt>
   <trkpt lat="38.7350500001307" lon="-9.103740002027402">
    <ele>7.83</ele>
   </trkpt>
   <trkpt lat="38.73429" lon="-9.10393">
    <ele>7.98</ele>
   </trkpt>
   <trkpt lat="38.73351" lon="-9.10416">
    <ele>8.07</ele>
   </trkpt>
   <trkpt lat="38.73281" lon="-9.10439">
    <ele>8.09</ele>
   </trkpt>
   <trkpt lat="38.732260000000004" lon="-9.10467">
    <ele>8.110000000000001</ele>
   </trkpt>
   <trkpt lat="38.73183" lon="-9.10492">
    <ele>8.350000000000001</ele>
   </trkpt>
   <trkpt lat="38.73178" lon="-9.10492">
    <ele>8.350000000000001</ele>
   </trkpt>
   <trkpt lat="38.731660000000005" lon="-9.10504">
    <ele>8.38</ele>
   </trkpt>
   <trkpt lat="38.73154" lon="-9.1051">
    <ele>8.38</ele>
   </trkpt>
   <trkpt lat="38.73094666819797" lon="-9.10552334036204">
    <ele>8.360000000000001</ele>
   </trkpt>
   <trkpt lat="38.73035333486929" lon="-9.105946673691957">
    <ele>8.39</ele>
   </trkpt>
   <trkpt lat="38.729760000000006" lon="-9.10637">
    <ele>8.26</ele>
   </trkpt>
   <trkpt lat="38.72937" lon="-9.10669">
    <ele>8.219999999999999</ele>
   </trkpt>
   <trkpt lat="38.72899" lon="-9.10706">
    <ele>8.26</ele>
   </trkpt>
   <trkpt lat="38.72860000065484" lon="-9.107465002256282">
    <ele>8.09</ele>
   </trkpt>
   <trkpt lat="38.728210000000004" lon="-9.10787">
    <ele>8.06</ele>
   </trkpt>
   <trkpt lat="38.72770333714517" lon="-9.108540009518634">
    <ele>8.120000000000001</ele>
   </trkpt>
   <trkpt lat="38.72719667046642" lon="-9.10921000953449">
    <ele>8.040000000000001</ele>
   </trkpt>
   <trkpt lat="38.726690000000005" lon="-9.10988">
    <ele>8.120000000000001</ele>
   </trkpt>
   <trkpt lat="38.72625" lon="-9.1103">
    <ele>8.010000000000002</ele>
   </trkpt>
   <trkpt lat="38.72556200601421" lon="-9.110894022875243">
    <ele>7.92</ele>
   </trkpt>
   <trkpt lat="38.72487400902272" lon="-9.11148803431108">
    <ele>8.030000000000001</ele>
   </trkpt>
   <trkpt lat="38.72418600902567" lon="-9.112082034307965">
    <ele>7.92</ele>
   </trkpt>
   <trkpt lat="38.72349800602319" lon="-9.112676022866353">
    <ele>7.9</ele>
   </trkpt>
   <trkpt lat="38.72281" lon="-9.11327">
    <ele>8.030000000000001</ele>
   </trkpt>
   <trkpt lat="38.72218500630994" lon="-9.11381502384605">
    <ele>7.98</ele>
   </trkpt>
   <trkpt lat="38.721560010089675" lon="-9.114360038158551">
    <ele>8.049999999999999</ele>
   </trkpt>
   <trkpt lat="38.72093501133928" lon="-9.114905042937846">
    <ele>8.040000000000001</ele>
   </trkpt>
   <trkpt lat="38.72031001005886" lon="-9.115450038184273">
    <ele>8.360000000000001</ele>
   </trkpt>
   <trkpt lat="38.71968500624852" lon="-9.115995023898176">
    <ele>8.34</ele>
   </trkpt>
   <trkpt lat="38.719060000000006" lon="-9.11654">
    <ele>8.77</ele>
   </trkpt>
   <trkpt lat="38.71896" lon="-9.11664">
    <ele>8.790000000000001</ele>
   </trkpt>
   <trkpt lat="38.71887" lon="-9.11687">
    <ele>8.520000000000001</ele>
   </trkpt>
   <trkpt lat="38.71855" lon="-9.11706">
    <ele>8.43</ele>
   </trkpt>
   <trkpt lat="38.71824" lon="-9.1173">
    <ele>8.56</ele>
   </trkpt>
   <trkpt lat="38.717765001124285" lon="-9.117815003428417">
    <ele>8.520000000000001</ele>
   </trkpt>
   <trkpt lat="38.717290000000006" lon="-9.11833">
    <ele>8.530000000000001</ele>
   </trkpt>
   <trkpt lat="38.71703" lon="-9.11866">
    <ele>8.49</ele>
   </trkpt>
   <trkpt lat="38.716412505638935" lon="-9.119325017247418">
    <ele>8.74</ele>
   </trkpt>
   <trkpt lat="38.715795007511055" lon="-9.119990023004304">
    <ele>8.64</ele>
   </trkpt>
   <trkpt lat="38.7151775056165" lon="-9.120655017271035">
    <ele>8.620000000000001</ele>
   </trkpt>
   <trkpt lat="38.714560000000006" lon="-9.12132">
    <ele>8.63</ele>
   </trkpt>
   <trkpt lat="38.7138850024221" lon="-9.122065006970587">
    <ele>8.97</ele>
   </trkpt>
   <trkpt lat="38.713210000000004" lon="-9.122810000000001">
    <ele>8.77</ele>
   </trkpt>
   <trkpt lat="38.71332" lon="-9.12298">
    <ele>9.44</ele>
   </trkpt>
   <trkpt lat="38.713370000000005" lon="-9.12302">
    <ele>9.44</ele>
   </trkpt>
   <trkpt lat="38.713530000000006" lon="-9.12325">
    <ele>9.9</ele>
   </trkpt>
   <trkpt lat="38.71369" lon="-9.123470000000001">
    <ele>10.3</ele>
   </trkpt>
   <trkpt lat="38.7137" lon="-9.123520000000001">
    <ele>10.3</ele>
   </trkpt>
   <trkpt lat="38.713530000000006" lon="-9.123550000000002">
    <ele>10.39</ele>
   </trkpt>
   <trkpt lat="38.71323" lon="-9.123550000000002">
    <ele>10.07</ele>
   </trkpt>
   <trkpt lat="38.71275" lon="-9.12367">
    <ele>8.75</ele>
   </trkpt>
   <trkpt lat="38.71266" lon="-9.12383">
    <ele>8.58</ele>
   </trkpt>
   <trkpt lat="38.71228" lon="-9.12425">
    <ele>8.41</ele>
   </trkpt>
   <trkpt lat="38.712160000000004" lon="-9.124410000000001">
    <ele>8.370000000000001</ele>
   </trkpt>
   <trkpt lat="38.71202" lon="-9.12467">
    <ele>8.370000000000001</ele>
   </trkpt>
   <trkpt lat="38.71208" lon="-9.12472">
    <ele>9.57</ele>
   </trkpt>
   <trkpt lat="38.71199" lon="-9.12481">
    <ele>9.170000000000002</ele>
   </trkpt>
   <trkpt lat="38.71177" lon="-9.124730000000001">
    <ele>6.540000000000001</ele>
   </trkpt>
   <trkpt lat="38.71179" lon="-9.124740000000001">
    <ele>6.540000000000001</ele>
   </trkpt>
   <trkpt lat="38.711400003154694" lon="-9.125590004467506">
    <ele>8.33</ele>
   </trkpt>
   <trkpt lat="38.71101" lon="-9.12644">
    <ele>8.540000000000001</ele>
   </trkpt>
   <trkpt lat="38.71056000415865" lon="-9.127136675398615">
    <ele>8.59</ele>
   </trkpt>
   <trkpt lat="38.71011000418347" lon="-9.127833342026738">
    <ele>8.620000000000001</ele>
   </trkpt>
   <trkpt lat="38.70966000000001" lon="-9.128530000000001">
    <ele>8.63</ele>
   </trkpt>
   <trkpt lat="38.70936000083024" lon="-9.128970001837871">
    <ele>8.450000000000001</ele>
   </trkpt>
   <trkpt lat="38.70906" lon="-9.12941">
    <ele>8.55</ele>
   </trkpt>
   <trkpt lat="38.70888" lon="-9.12978">
    <ele>8.530000000000001</ele>
   </trkpt>
   <trkpt lat="38.70843667511055" lon="-9.130776679064093">
    <ele>8.5</ele>
   </trkpt>
   <trkpt lat="38.70799334176064" lon="-9.131773345767812">
    <ele>8.39</ele>
   </trkpt>
   <trkpt lat="38.707550000000005" lon="-9.13277">
    <ele>8.31</ele>
   </trkpt>
   <trkpt lat="38.7075" lon="-9.13297">
    <ele>8.31</ele>
   </trkpt>
   <trkpt lat="38.70727" lon="-9.13286">
    <ele>8.17</ele>
   </trkpt>
   <trkpt lat="38.70711" lon="-9.13339">
    <ele>8.26</ele>
   </trkpt>
   <trkpt lat="38.707010000000004" lon="-9.1338">
    <ele>8.17</ele>
   </trkpt>
   <trkpt lat="38.706860000000006" lon="-9.13434">
    <ele>8.14</ele>
   </trkpt>
   <trkpt lat="38.70698" lon="-9.13516">
    <ele>8.33</ele>
   </trkpt>
   <trkpt lat="38.707060000000006" lon="-9.13517">
    <ele>8.33</ele>
   </trkpt>
   <trkpt lat="38.70680201964201" lon="-9.136244015527385">
    <ele>7.8500000000000005</ele>
   </trkpt>
   <trkpt lat="38.70654402945973" lon="-9.13731802330424">
    <ele>7.21</ele>
   </trkpt>
   <trkpt lat="38.70628602945333" lon="-9.138392023330399">
    <ele>7.42</ele>
   </trkpt>
   <trkpt lat="38.706028019622956" lon="-9.139466015605693">
    <ele>7.430000000000001</ele>
   </trkpt>
   <trkpt lat="38.70577" lon="-9.140540000000001">
    <ele>7.9</ele>
   </trkpt>
   <trkpt lat="38.70581000000001" lon="-9.14056">
    <ele>8.32</ele>
   </trkpt>
   <trkpt lat="38.705780000000004" lon="-9.14076">
    <ele>8.610000000000001</ele>
   </trkpt>
   <trkpt lat="38.70579" lon="-9.14099">
    <ele>8.610000000000001</ele>
   </trkpt>
   <trkpt lat="38.705850000000005" lon="-9.14118">
    <ele>9.32</ele>
   </trkpt>
   <trkpt lat="38.70597" lon="-9.141350000000001">
    <ele>9.32</ele>
   </trkpt>
   <trkpt lat="38.70613" lon="-9.14147">
    <ele>9.46</ele>
   </trkpt>
   <trkpt lat="38.7066" lon="-9.14166">
    <ele>9.959999999999999</ele>
   </trkpt>
   <trkpt lat="38.706435001887144" lon="-9.142325001518719">
    <ele>10.180000000000001</ele>
   </trkpt>
   <trkpt lat="38.70627" lon="-9.142990000000001">
    <ele>10.110000000000001</ele>
   </trkpt>
   <trkpt lat="38.70618" lon="-9.1432">
    <ele>9.83</ele>
   </trkpt>
   <trkpt lat="38.706230000000005" lon="-9.143210000000002">
    <ele>9.83</ele>
   </trkpt>
   <trkpt lat="38.70619000000001" lon="-9.14342">
    <ele>9.9</ele>
   </trkpt>
   <trkpt lat="38.70619000000001" lon="-9.14352">
    <ele>9.959999999999999</ele>
   </trkpt>
   <trkpt lat="38.706250000000004" lon="-9.14422">
    <ele>9.600000000000001</ele>
   </trkpt>
   <trkpt lat="38.70628000000001" lon="-9.144900000000002">
    <ele>9.250000000000002</ele>
   </trkpt>
   <trkpt lat="38.70658" lon="-9.14489">
    <ele>9.53</ele>
   </trkpt>
   <trkpt lat="38.706590000000006" lon="-9.14545">
    <ele>9.19</ele>
   </trkpt>
   <trkpt lat="38.70656" lon="-9.14563">
    <ele>9.19</ele>
   </trkpt>
   <trkpt lat="38.70657000705305" lon="-9.146539999762897">
    <ele>9.14</ele>
   </trkpt>
   <trkpt lat="38.70658000705325" lon="-9.147449999780427">
    <ele>9.170000000000002</ele>
   </trkpt>
   <trkpt lat="38.706590000000006" lon="-9.14836">
    <ele>9.1</ele>
   </trkpt>
   <trkpt lat="38.706630000000004" lon="-9.14858">
    <ele>9.170000000000002</ele>
   </trkpt>
   <trkpt lat="38.70664" lon="-9.148750000000001">
    <ele>9.18</ele>
   </trkpt>
   <trkpt lat="38.70669" lon="-9.14872">
    <ele>9.18</ele>
   </trkpt>
   <trkpt lat="38.70671000558357" lon="-9.149864999714925">
    <ele>9.39</ele>
   </trkpt>
   <trkpt lat="38.70673" lon="-9.151010000000001">
    <ele>9.340000000000002</ele>
   </trkpt>
   <trkpt lat="38.70718000000649" lon="-9.151134999196591">
    <ele>9.840000000000002</ele>
   </trkpt>
   <trkpt lat="38.70763" lon="-9.15126">
    <ele>10.85</ele>
   </trkpt>
   <trkpt lat="38.707640002691235" lon="-9.152054999870655">
    <ele>11.62</ele>
   </trkpt>
   <trkpt lat="38.70765" lon="-9.15285">
    <ele>11.540000000000001</ele>
   </trkpt>
   <trkpt lat="38.706810000000004" lon="-9.15282">
    <ele>10.07</ele>
   </trkpt>
   <trkpt lat="38.70678" lon="-9.152790000000001">
    <ele>10.07</ele>
   </trkpt>
   <trkpt lat="38.70675000000001" lon="-9.1529">
    <ele>10.07</ele>
   </trkpt>
   <trkpt lat="38.706755002933555" lon="-9.153729999924387">
    <ele>10.450000000000001</ele>
   </trkpt>
   <trkpt lat="38.70676" lon="-9.15456">
    <ele>10.910000000000002</ele>
   </trkpt>
   <trkpt lat="38.70666000000001" lon="-9.15529">
    <ele>10.950000000000001</ele>
   </trkpt>
   <trkpt lat="38.706630000000004" lon="-9.1553">
    <ele>10.950000000000001</ele>
   </trkpt>
   <trkpt lat="38.706500000000005" lon="-9.15583">
    <ele>10.83</ele>
   </trkpt>
   <trkpt lat="38.706210000000006" lon="-9.15656">
    <ele>10.270000000000001</ele>
   </trkpt>
   <trkpt lat="38.7059" lon="-9.15718">
    <ele>9.670000000000002</ele>
   </trkpt>
   <trkpt lat="38.705830000000006" lon="-9.15726">
    <ele>9.670000000000002</ele>
   </trkpt>
   <trkpt lat="38.70545000565633" lon="-9.158073341930391">
    <ele>9.420000000000002</ele>
   </trkpt>
   <trkpt lat="38.70507000567859" lon="-9.15888667521593">
    <ele>9.4</ele>
   </trkpt>
   <trkpt lat="38.70469000000001" lon="-9.1597">
    <ele>9.18</ele>
   </trkpt>
   <trkpt lat="38.7045" lon="-9.160120000000001">
    <ele>9.19</ele>
   </trkpt>
   <trkpt lat="38.7043300012148" lon="-9.160665001456145">
    <ele>8.94</ele>
   </trkpt>
   <trkpt lat="38.70416" lon="-9.16121">
    <ele>8.93</ele>
   </trkpt>
   <trkpt lat="38.70394500476001" lon="-9.16226500307232">
    <ele>8.910000000000002</ele>
   </trkpt>
   <trkpt lat="38.70373" lon="-9.16332">
    <ele>8.84</ele>
   </trkpt>
   <trkpt lat="38.70369" lon="-9.16374">
    <ele>8.81</ele>
   </trkpt>
   <trkpt lat="38.703700000000005" lon="-9.16383">
    <ele>8.81</ele>
   </trkpt>
   <trkpt lat="38.70369" lon="-9.16426">
    <ele>8.68</ele>
   </trkpt>
   <trkpt lat="38.70367" lon="-9.16436">
    <ele>8.68</ele>
   </trkpt>
   <trkpt lat="38.703680000000006" lon="-9.16539">
    <ele>8.440000000000001</ele>
   </trkpt>
   <trkpt lat="38.70367" lon="-9.16553">
    <ele>8.440000000000001</ele>
   </trkpt>
   <trkpt lat="38.70369" lon="-9.16562">
    <ele>8.4</ele>
   </trkpt>
   <trkpt lat="38.70369" lon="-9.16585">
    <ele>8.4</ele>
   </trkpt>
   <trkpt lat="38.70367" lon="-9.16596">
    <ele>8.4</ele>
   </trkpt>
   <trkpt lat="38.70367000388374" lon="-9.166914999951722">
    <ele>8.17</ele>
   </trkpt>
   <trkpt lat="38.70367" lon="-9.16787">
    <ele>8.120000000000001</ele>
   </trkpt>
   <trkpt lat="38.70353" lon="-9.16782">
    <ele>8.31</ele>
   </trkpt>
   <trkpt lat="38.70353" lon="-9.16803">
    <ele>14.870000000000001</ele>
   </trkpt>
   <trkpt lat="38.70338" lon="-9.168040000000001">
    <ele>14.900000000000002</ele>
   </trkpt>
   <trkpt lat="38.70338" lon="-9.16807">
    <ele>10.75</ele>
   </trkpt>
   <trkpt lat="38.70329" lon="-9.16811">
    <ele>10.13</ele>
   </trkpt>
   <trkpt lat="38.70299" lon="-9.16798">
    <ele>8.59</ele>
   </trkpt>
   <trkpt lat="38.70272000000001" lon="-9.167900000000001">
    <ele>7.3500000000000005</ele>
   </trkpt>
   <trkpt lat="38.70254201676534" lon="-9.168892009857595">
    <ele>7.88</ele>
   </trkpt>
   <trkpt lat="38.70236402514964" lon="-9.169884014777026">
    <ele>7.86</ele>
   </trkpt>
   <trkpt lat="38.70218602515296" lon="-9.170876014758115">
    <ele>7.86</ele>
   </trkpt>
   <trkpt lat="38.70200801677543" lon="-9.171868009800686">
    <ele>7.95</ele>
   </trkpt>
   <trkpt lat="38.70183" lon="-9.17286">
    <ele>7.470000000000001</ele>
   </trkpt>
   <trkpt lat="38.70179" lon="-9.17285">
    <ele>7.470000000000001</ele>
   </trkpt>
   <trkpt lat="38.70178000000001" lon="-9.17285">
    <ele>7.470000000000001</ele>
   </trkpt>
   <trkpt lat="38.70197431504508" lon="-9.17177858889034">
    <ele>7.72</ele>
   </trkpt>
   <trkpt lat="38.702168620313685" lon="-9.170707171958236">
    <ele>7.82</ele>
   </trkpt>
   <trkpt lat="38.702362915805715" lon="-9.169635749203907">
    <ele>7.7</ele>
   </trkpt>
   <trkpt lat="38.70255720152106" lon="-9.168564320627578">
    <ele>7.750000000000001</ele>
   </trkpt>
   <trkpt lat="38.70275147745958" lon="-9.167492886229468">
    <ele>7.69</ele>
   </trkpt>
   <trkpt lat="38.70294574362115" lon="-9.166421446009798">
    <ele>7.48</ele>
   </trkpt>
   <trkpt lat="38.703140000000005" lon="-9.16535">
    <ele>7.430000000000001</ele>
   </trkpt>
   <trkpt lat="38.70315" lon="-9.164660000000001">
    <ele>7.5</ele>
   </trkpt>
   <trkpt lat="38.70315" lon="-9.16534">
    <ele>7.430000000000001</ele>
   </trkpt>
   <trkpt lat="38.70302000228707" lon="-9.166075001411953">
    <ele>7.5</ele>
   </trkpt>
   <trkpt lat="38.702890000000004" lon="-9.16681">
    <ele>7.51</ele>
   </trkpt>
   <trkpt lat="38.702920000000006" lon="-9.166820000000001">
    <ele>7.53</ele>
   </trkpt>
   <trkpt lat="38.70273" lon="-9.167860000000001">
    <ele>7.800000000000001</ele>
   </trkpt>
   <trkpt lat="38.70253334344578" lon="-9.168950006029732">
    <ele>7.88</ele>
   </trkpt>
   <trkpt lat="38.70233667677285" lon="-9.170040006064196">
    <ele>7.86</ele>
   </trkpt>
   <trkpt lat="38.70214" lon="-9.171130000000002">
    <ele>7.86</ele>
   </trkpt>
   <trkpt lat="38.70232501334871" lon="-9.170107507977496">
    <ele>7.9</ele>
   </trkpt>
   <trkpt lat="38.70251001779333" lon="-9.16908501066431">
    <ele>7.800000000000001</ele>
   </trkpt>
   <trkpt lat="38.702695013333745" lon="-9.168062508060634">
    <ele>7.840000000000002</ele>
   </trkpt>
   <trkpt lat="38.70288" lon="-9.16704">
    <ele>7.670000000000001</ele>
   </trkpt>
   <trkpt lat="38.70271201473114" lon="-9.16797000874499">
    <ele>7.840000000000002</ele>
   </trkpt>
   <trkpt lat="38.70254402209611" lon="-9.16890001312049">
    <ele>7.88</ele>
   </trkpt>
   <trkpt lat="38.70237602209499" lon="-9.169830013126356">
    <ele>7.86</ele>
   </trkpt>
   <trkpt lat="38.70220801472789" lon="-9.170760008762446">
    <ele>7.9</ele>
   </trkpt>
   <trkpt lat="38.702040000000004" lon="-9.17169">
    <ele>7.88</ele>
   </trkpt>
   <trkpt lat="38.70206" lon="-9.171570000000001">
    <ele>7.94</ele>
   </trkpt>
   <trkpt lat="38.70223201537453" lon="-9.170620009128681">
    <ele>7.9</ele>
   </trkpt>
   <trkpt lat="38.7024040230629" lon="-9.16967001368717">
    <ele>7.800000000000001</ele>
   </trkpt>
   <trkpt lat="38.70257602306505" lon="-9.16872001367562">
    <ele>7.88</ele>
   </trkpt>
   <trkpt lat="38.70274801538088" lon="-9.167770009094186">
    <ele>7.800000000000001</ele>
   </trkpt>
   <trkpt lat="38.702920000000006" lon="-9.166820000000001">
    <ele>7.51</ele>
   </trkpt>
   <trkpt lat="38.702890000000004" lon="-9.16681">
    <ele>7.51</ele>
   </trkpt>
   <trkpt lat="38.70302000231386" lon="-9.166075001260433">
    <ele>7.5</ele>
   </trkpt>
   <trkpt lat="38.70315" lon="-9.16534">
    <ele>7.430000000000001</ele>
   </trkpt>
   <trkpt lat="38.70315" lon="-9.164200000000001">
    <ele>7.3500000000000005</ele>
   </trkpt>
   <trkpt lat="38.70326" lon="-9.16421">
    <ele>7.490000000000001</ele>
   </trkpt>
   <trkpt lat="38.70324" lon="-9.16388">
    <ele>7.410000000000001</ele>
   </trkpt>
   <trkpt lat="38.703160000000004" lon="-9.16356">
    <ele>7.42</ele>
   </trkpt>
   <trkpt lat="38.70315" lon="-9.16336">
    <ele>7.4</ele>
   </trkpt>
   <trkpt lat="38.70317" lon="-9.16294">
    <ele>7.48</ele>
   </trkpt>
   <trkpt lat="38.70324" lon="-9.16258">
    <ele>7.710000000000001</ele>
   </trkpt>
   <trkpt lat="38.70324" lon="-9.16257">
    <ele>7.710000000000001</ele>
   </trkpt>
   <trkpt lat="38.70333" lon="-9.162310000000002">
    <ele>7.65</ele>
   </trkpt>
   <trkpt lat="38.703430000000004" lon="-9.161940000000001">
    <ele>7.24</ele>
   </trkpt>
   <trkpt lat="38.703480000000006" lon="-9.16182">
    <ele>7.24</ele>
   </trkpt>
   <trkpt lat="38.70371" lon="-9.161430000000001">
    <ele>7.46</ele>
   </trkpt>
   <trkpt lat="38.70376" lon="-9.16093">
    <ele>7.540000000000001</ele>
   </trkpt>
   <trkpt lat="38.703880000000005" lon="-9.16047">
    <ele>7.540000000000001</ele>
   </trkpt>
   <trkpt lat="38.70409" lon="-9.15985">
    <ele>7.710000000000001</ele>
   </trkpt>
   <trkpt lat="38.704280000000004" lon="-9.15938">
    <ele>7.640000000000001</ele>
   </trkpt>
   <trkpt lat="38.70460000218779" lon="-9.15868000291134">
    <ele>7.540000000000001</ele>
   </trkpt>
   <trkpt lat="38.70492" lon="-9.15798">
    <ele>7.51</ele>
   </trkpt>
   <trkpt lat="38.70499" lon="-9.157960000000001">
    <ele>7.6000000000000005</ele>
   </trkpt>
   <trkpt lat="38.70520500108607" lon="-9.15745000158461">
    <ele>7.59</ele>
   </trkpt>
   <trkpt lat="38.705420000000004" lon="-9.15694">
    <ele>7.44</ele>
   </trkpt>
   <trkpt lat="38.705470000000005" lon="-9.15695">
    <ele>7.48</ele>
   </trkpt>
   <trkpt lat="38.70561" lon="-9.156600000000001">
    <ele>7.580000000000001</ele>
   </trkpt>
   <trkpt lat="38.705830000000006" lon="-9.15596">
    <ele>7.5200000000000005</ele>
   </trkpt>
   <trkpt lat="38.70599" lon="-9.15534">
    <ele>7.580000000000001</ele>
   </trkpt>
   <trkpt lat="38.706050000000005" lon="-9.155040000000001">
    <ele>7.6000000000000005</ele>
   </trkpt>
   <trkpt lat="38.706140000000005" lon="-9.15436">
    <ele>7.450000000000001</ele>
   </trkpt>
   <trkpt lat="38.70618" lon="-9.15394">
    <ele>7.4</ele>
   </trkpt>
   <trkpt lat="38.706176675014156" lon="-9.152949999933368">
    <ele>7.300000000000001</ele>
   </trkpt>
   <trkpt lat="38.70617334168092" lon="-9.151959999958926">
    <ele>7.320000000000001</ele>
   </trkpt>
   <trkpt lat="38.70617" lon="-9.150970000000001">
    <ele>7.33</ele>
   </trkpt>
   <trkpt lat="38.70615500199911" lon="-9.15028499989924">
    <ele>7.320000000000001</ele>
   </trkpt>
   <trkpt lat="38.706140000000005" lon="-9.149600000000001">
    <ele>7.34</ele>
   </trkpt>
   <trkpt lat="38.706050000000005" lon="-9.14888">
    <ele>7.300000000000001</ele>
   </trkpt>
   <trkpt lat="38.706" lon="-9.148700000000002">
    <ele>7.19</ele>
   </trkpt>
   <trkpt lat="38.70584" lon="-9.148810000000001">
    <ele>6.69</ele>
   </trkpt>
   <trkpt lat="38.705560004184974" lon="-9.148109994546983">
    <ele>5.9799999999999995</ele>
   </trkpt>
   <trkpt lat="38.70528000419666" lon="-9.147409994576266">
    <ele>5.790000000000001</ele>
   </trkpt>
   <trkpt lat="38.705000000000005" lon="-9.14671">
    <ele>5.83</ele>
   </trkpt>
   <trkpt lat="38.704950000000004" lon="-9.14676">
    <ele>6.11</ele>
   </trkpt>
   <trkpt lat="38.70494" lon="-9.146690000000001">
    <ele>6.280000000000001</ele>
   </trkpt>
   <trkpt lat="38.704980000000006" lon="-9.14666">
    <ele>6.450000000000001</ele>
   </trkpt>
   <trkpt lat="38.704950000000004" lon="-9.146600000000001">
    <ele>6.450000000000001</ele>
   </trkpt>
   <trkpt lat="38.705000000000005" lon="-9.14635">
    <ele>6.61</ele>
   </trkpt>
   <trkpt lat="38.704950000000004" lon="-9.146600000000001">
    <ele>6.280000000000001</ele>
   </trkpt>
   <trkpt lat="38.704980000000006" lon="-9.14666">
    <ele>6.11</ele>
   </trkpt>
   <trkpt lat="38.70494" lon="-9.146690000000001">
    <ele>5.83</ele>
   </trkpt>
   <trkpt lat="38.704950000000004" lon="-9.14676">
    <ele>5.83</ele>
   </trkpt>
   <trkpt lat="38.705000000000005" lon="-9.14671">
    <ele>5.83</ele>
   </trkpt>
   <trkpt lat="38.70526000175084" lon="-9.14735999751561">
    <ele>5.73</ele>
   </trkpt>
   <trkpt lat="38.70552" lon="-9.148010000000001">
    <ele>5.920000000000001</ele>
   </trkpt>
   <trkpt lat="38.70526000184753" lon="-9.147359997757341">
    <ele>5.710000000000001</ele>
   </trkpt>
   <trkpt lat="38.705000000000005" lon="-9.14671">
    <ele>5.790000000000001</ele>
   </trkpt>
   <trkpt lat="38.704950000000004" lon="-9.14676">
    <ele>5.790000000000001</ele>
   </trkpt>
   <trkpt lat="38.70494" lon="-9.146690000000001">
    <ele>5.790000000000001</ele>
   </trkpt>
   <trkpt lat="38.704980000000006" lon="-9.14666">
    <ele>5.790000000000001</ele>
   </trkpt>
   <trkpt lat="38.704950000000004" lon="-9.146600000000001">
    <ele>5.790000000000001</ele>
   </trkpt>
   <trkpt lat="38.70509500274425" lon="-9.145805001322543">
    <ele>5.790000000000001</ele>
   </trkpt>
   <trkpt lat="38.70524" lon="-9.145010000000001">
    <ele>5.710000000000001</ele>
   </trkpt>
   <trkpt lat="38.70552" lon="-9.14498">
    <ele>6.280000000000001</ele>
   </trkpt>
   <trkpt lat="38.70553" lon="-9.14427">
    <ele>7.010000000000001</ele>
   </trkpt>
   <trkpt lat="38.705580000000005" lon="-9.1441">
    <ele>7.010000000000001</ele>
   </trkpt>
   <trkpt lat="38.705580000000005" lon="-9.14385">
    <ele>7.010000000000001</ele>
   </trkpt>
   <trkpt lat="38.70561" lon="-9.14376">
    <ele>7.04</ele>
   </trkpt>
   <trkpt lat="38.705670000000005" lon="-9.14363">
    <ele>7.04</ele>
   </trkpt>
   <trkpt lat="38.70575" lon="-9.14356">
    <ele>7.04</ele>
   </trkpt>
   <trkpt lat="38.705200000000005" lon="-9.14358">
    <ele>7.72</ele>
   </trkpt>
   <trkpt lat="38.705200000000005" lon="-9.14302">
    <ele>7.540000000000001</ele>
   </trkpt>
   <trkpt lat="38.70519" lon="-9.143030000000001">
    <ele>6.7700000000000005</ele>
   </trkpt>
   <trkpt lat="38.705400000000004" lon="-9.14235">
    <ele>6.94</ele>
   </trkpt>
   <trkpt lat="38.70551000156619" lon="-9.141750000742164">
    <ele>6.960000000000001</ele>
   </trkpt>
   <trkpt lat="38.70562" lon="-9.141150000000001">
    <ele>7.23</ele>
   </trkpt>
   <trkpt lat="38.70586001676408" lon="-9.140158013311392">
    <ele>7.470000000000001</ele>
   </trkpt>
   <trkpt lat="38.70610002514717" lon="-9.139166019963096">
    <ele>7.5</ele>
   </trkpt>
   <trkpt lat="38.706340025149174" lon="-9.138174019955235">
    <ele>7.34</ele>
   </trkpt>
   <trkpt lat="38.70658001676995" lon="-9.137182013287944">
    <ele>7.2</ele>
   </trkpt>
   <trkpt lat="38.70682" lon="-9.136190000000001">
    <ele>9.62</ele>
   </trkpt>
   <trkpt lat="38.70687" lon="-9.13621">
    <ele>8.48</ele>
   </trkpt>
   <trkpt lat="38.70711" lon="-9.135190000000001">
    <ele>8.76</ele>
   </trkpt>
   <trkpt lat="38.70716" lon="-9.13522">
    <ele>8.76</ele>
   </trkpt>
   <trkpt lat="38.70722000000001" lon="-9.13498">
    <ele>8.9</ele>
   </trkpt>
   <trkpt lat="38.707350000000005" lon="-9.13461">
    <ele>9.24</ele>
   </trkpt>
   <trkpt lat="38.707495001567565" lon="-9.134010001074055">
    <ele>9.58</ele>
   </trkpt>
   <trkpt lat="38.707640000000005" lon="-9.133410000000001">
    <ele>9.38</ele>
   </trkpt>
   <trkpt lat="38.70756" lon="-9.133370000000001">
    <ele>8.81</ele>
   </trkpt>
   <trkpt lat="38.70769000000001" lon="-9.132840000000002">
    <ele>8.360000000000001</ele>
   </trkpt>
   <trkpt lat="38.707950000000004" lon="-9.132290000000001">
    <ele>8.43</ele>
   </trkpt>
   <trkpt lat="38.70803" lon="-9.13235">
    <ele>8.75</ele>
   </trkpt>
   <trkpt lat="38.70836000230595" lon="-9.131615003380524">
    <ele>8.98</ele>
   </trkpt>
   <trkpt lat="38.708690000000004" lon="-9.130880000000001">
    <ele>9.61</ele>
   </trkpt>
   <trkpt lat="38.70853" lon="-9.131210000000001">
    <ele>9.200000000000001</ele>
   </trkpt>
   <trkpt lat="38.70862" lon="-9.131">
    <ele>9.28</ele>
   </trkpt>
   <trkpt lat="38.708400000000005" lon="-9.130830000000001">
    <ele>8.5</ele>
   </trkpt>
   <trkpt lat="38.708640001136615" lon="-9.130305001843643">
    <ele>8.540000000000001</ele>
   </trkpt>
   <trkpt lat="38.70888" lon="-9.12978">
    <ele>8.530000000000001</ele>
   </trkpt>
   <trkpt lat="38.70906" lon="-9.12941">
    <ele>8.55</ele>
   </trkpt>
   <trkpt lat="38.709360000818684" lon="-9.128970001854805">
    <ele>8.450000000000001</ele>
   </trkpt>
   <trkpt lat="38.70966000000001" lon="-9.128530000000001">
    <ele>8.63</ele>
   </trkpt>
   <trkpt lat="38.70962" lon="-9.12851">
    <ele>8.63</ele>
   </trkpt>
   <trkpt lat="38.70969" lon="-9.12838">
    <ele>8.74</ele>
   </trkpt>
   <trkpt lat="38.70946" lon="-9.12814">
    <ele>8.200000000000001</ele>
   </trkpt>
   <trkpt lat="38.709945002430665" lon="-9.127400004869624">
    <ele>8.17</ele>
   </trkpt>
   <trkpt lat="38.71043" lon="-9.126660000000001">
    <ele>8.06</ele>
   </trkpt>
   <trkpt lat="38.7105" lon="-9.12673">
    <ele>8.26</ele>
   </trkpt>
   <trkpt lat="38.71100500249631" lon="-9.125955005569045">
    <ele>8.110000000000001</ele>
   </trkpt>
   <trkpt lat="38.711510000000004" lon="-9.12518">
    <ele>8.010000000000002</ele>
   </trkpt>
   <trkpt lat="38.71159" lon="-9.12499">
    <ele>8.010000000000002</ele>
   </trkpt>
   <trkpt lat="38.711510000000004" lon="-9.12518">
    <ele>8.010000000000002</ele>
   </trkpt>
   <trkpt lat="38.71114" lon="-9.12575">
    <ele>8.100000000000001</ele>
   </trkpt>
   <trkpt lat="38.711510000000004" lon="-9.12518">
    <ele>8.010000000000002</ele>
   </trkpt>
   <trkpt lat="38.711600000000004" lon="-9.12499">
    <ele>8.030000000000001</ele>
   </trkpt>
   <trkpt lat="38.71155" lon="-9.12494">
    <ele>8.030000000000001</ele>
   </trkpt>
   <trkpt lat="38.712030000000006" lon="-9.124210000000001">
    <ele>8.26</ele>
   </trkpt>
   <trkpt lat="38.71169000471602" lon="-9.124953340382548">
    <ele>8.110000000000001</ele>
   </trkpt>
   <trkpt lat="38.71135000472582" lon="-9.125696673694357">
    <ele>8.41</ele>
   </trkpt>
   <trkpt lat="38.71101" lon="-9.12644">
    <ele>8.540000000000001</ele>
   </trkpt>
   <trkpt lat="38.710800000000006" lon="-9.12677">
    <ele>8.57</ele>
   </trkpt>
   <trkpt lat="38.71101" lon="-9.12644">
    <ele>8.540000000000001</ele>
   </trkpt>
   <trkpt lat="38.71135000469631" lon="-9.12569667375888">
    <ele>8.41</ele>
   </trkpt>
   <trkpt lat="38.7116900046865" lon="-9.124953340447075">
    <ele>8.110000000000001</ele>
   </trkpt>
   <trkpt lat="38.712030000000006" lon="-9.124210000000001">
    <ele>8.26</ele>
   </trkpt>
   <trkpt lat="38.712050000000005" lon="-9.124130000000001">
    <ele>8.17</ele>
   </trkpt>
   <trkpt lat="38.71188" lon="-9.1239">
    <ele>8.120000000000001</ele>
   </trkpt>
   <trkpt lat="38.711830000000006" lon="-9.123650000000001">
    <ele>8.15</ele>
   </trkpt>
   <trkpt lat="38.711830000000006" lon="-9.12364">
    <ele>8.15</ele>
   </trkpt>
   <trkpt lat="38.711920000000006" lon="-9.1235">
    <ele>7.9300000000000015</ele>
   </trkpt>
   <trkpt lat="38.71235" lon="-9.12303">
    <ele>8.0</ele>
   </trkpt>
   <trkpt lat="38.712720000000004" lon="-9.12269">
    <ele>8.31</ele>
   </trkpt>
   <trkpt lat="38.712830000000004" lon="-9.12284">
    <ele>8.370000000000001</ele>
   </trkpt>
   <trkpt lat="38.712990000000005" lon="-9.12269">
    <ele>8.34</ele>
   </trkpt>
   <trkpt lat="38.713080000000005" lon="-9.12265">
    <ele>8.34</ele>
   </trkpt>
   <trkpt lat="38.71311" lon="-9.122670000000001">
    <ele>8.34</ele>
   </trkpt>
   <trkpt lat="38.713210000000004" lon="-9.122810000000001">
    <ele>8.77</ele>
   </trkpt>
   <trkpt lat="38.713885002305275" lon="-9.122065007099524">
    <ele>8.97</ele>
   </trkpt>
   <trkpt lat="38.714560000000006" lon="-9.12132">
    <ele>8.63</ele>
   </trkpt>
   <trkpt lat="38.715177505661075" lon="-9.120655017223035">
    <ele>8.620000000000001</ele>
   </trkpt>
   <trkpt lat="38.71579500755561" lon="-9.119990022956301">
    <ele>8.64</ele>
   </trkpt>
   <trkpt lat="38.71641250568351" lon="-9.119325017199417">
    <ele>8.75</ele>
   </trkpt>
   <trkpt lat="38.71703" lon="-9.11866">
    <ele>8.49</ele>
   </trkpt>
   <trkpt lat="38.717270000000006" lon="-9.118360000000001">
    <ele>8.530000000000001</ele>
   </trkpt>
   <trkpt lat="38.71777000129906" lon="-9.117820003715982">
    <ele>8.55</ele>
   </trkpt>
   <trkpt lat="38.718270000000004" lon="-9.117280000000001">
    <ele>8.56</ele>
   </trkpt>
   <trkpt lat="38.71855" lon="-9.11706">
    <ele>8.43</ele>
   </trkpt>
   <trkpt lat="38.71887" lon="-9.11687">
    <ele>8.520000000000001</ele>
   </trkpt>
   <trkpt lat="38.71896" lon="-9.11664">
    <ele>8.790000000000001</ele>
   </trkpt>
   <trkpt lat="38.719060000000006" lon="-9.11654">
    <ele>8.77</ele>
   </trkpt>
   <trkpt lat="38.71978251178632" lon="-9.115911294495843">
    <ele>8.34</ele>
   </trkpt>
   <trkpt lat="38.72050502020574" lon="-9.115282576279373">
    <ele>8.26</ele>
   </trkpt>
   <trkpt lat="38.72122752525811" lon="-9.114653845350063">
    <ele>8.030000000000001</ele>
   </trkpt>
   <trkpt lat="38.72195002694326" lon="-9.114025101707384">
    <ele>7.96</ele>
   </trkpt>
   <trkpt lat="38.722672525261046" lon="-9.113396345350811">
    <ele>8.010000000000002</ele>
   </trkpt>
   <trkpt lat="38.72339502021131" lon="-9.112767576279818">
    <ele>7.9</ele>
   </trkpt>
   <trkpt lat="38.72411751179391" lon="-9.11213879449388">
    <ele>7.8900000000000015</ele>
   </trkpt>
   <trkpt lat="38.72484" lon="-9.11151">
    <ele>8.06</ele>
   </trkpt>
   <trkpt lat="38.72491" lon="-9.111680000000002">
    <ele>1.86</ele>
   </trkpt>
   <trkpt lat="38.72491" lon="-9.1118">
    <ele>2.22</ele>
   </trkpt>
   <trkpt lat="38.724880000000006" lon="-9.112060000000001">
    <ele>2.6100000000000003</ele>
   </trkpt>
   <trkpt lat="38.72482" lon="-9.11217">
    <ele>2.7900000000000005</ele>
   </trkpt>
   <trkpt lat="38.72466" lon="-9.112300000000001">
    <ele>3.25</ele>
   </trkpt>
   <trkpt lat="38.72458" lon="-9.11238">
    <ele>3.62</ele>
   </trkpt>
   <trkpt lat="38.72448" lon="-9.1126">
    <ele>4.540000000000001</ele>
   </trkpt>
   <trkpt lat="38.7244" lon="-9.11266">
    <ele>5.0200000000000005</ele>
   </trkpt>
   <trkpt lat="38.72444" lon="-9.11278">
    <ele>5.72</ele>
   </trkpt>
   <trkpt lat="38.72439" lon="-9.11288">
    <ele>6.280000000000001</ele>
   </trkpt>
   <trkpt lat="38.72444" lon="-9.11278">
    <ele>5.72</ele>
   </trkpt>
   <trkpt lat="38.7246" lon="-9.11265">
    <ele>4.62</ele>
   </trkpt>
   <trkpt lat="38.72464" lon="-9.112390000000001">
    <ele>3.58</ele>
   </trkpt>
   <trkpt lat="38.72469" lon="-9.11228">
    <ele>3.25</ele>
   </trkpt>
   <trkpt lat="38.72489" lon="-9.112">
    <ele>2.25</ele>
   </trkpt>
   <trkpt lat="38.724900000000005" lon="-9.111880000000001">
    <ele>2.25</ele>
   </trkpt>
   <trkpt lat="38.72493" lon="-9.11177">
    <ele>2.21</ele>
   </trkpt>
   <trkpt lat="38.724810000000005" lon="-9.111540000000002">
    <ele>1.59</ele>
   </trkpt>
   <trkpt lat="38.7255300015535" lon="-9.110920006319656">
    <ele>7.92</ele>
   </trkpt>
   <trkpt lat="38.72625" lon="-9.1103">
    <ele>8.010000000000002</ele>
   </trkpt>
   <trkpt lat="38.726690000000005" lon="-9.10988">
    <ele>8.120000000000001</ele>
   </trkpt>
   <trkpt lat="38.72719667050257" lon="-9.10921000948669">
    <ele>8.040000000000001</ele>
   </trkpt>
   <trkpt lat="38.727703337181325" lon="-9.108540009470834">
    <ele>8.120000000000001</ele>
   </trkpt>
   <trkpt lat="38.728210000000004" lon="-9.10787">
    <ele>8.06</ele>
   </trkpt>
   <trkpt lat="38.72860000074238" lon="-9.10746500216538">
    <ele>8.09</ele>
   </trkpt>
   <trkpt lat="38.72899" lon="-9.10706">
    <ele>8.26</ele>
   </trkpt>
   <trkpt lat="38.72937" lon="-9.10669">
    <ele>8.219999999999999</ele>
   </trkpt>
   <trkpt lat="38.729760000000006" lon="-9.10637">
    <ele>8.25</ele>
   </trkpt>
   <trkpt lat="38.72975" lon="-9.106380000000001">
    <ele>8.25</ele>
   </trkpt>
   <trkpt lat="38.73034666816635" lon="-9.105953340496994">
    <ele>8.4</ele>
   </trkpt>
   <trkpt lat="38.730943334781976" lon="-9.105526673866924">
    <ele>8.360000000000001</ele>
   </trkpt>
   <trkpt lat="38.73154" lon="-9.1051">
    <ele>8.38</ele>
   </trkpt>
   <trkpt lat="38.731660000000005" lon="-9.10504">
    <ele>8.38</ele>
   </trkpt>
   <trkpt lat="38.73178" lon="-9.10492">
    <ele>8.350000000000001</ele>
   </trkpt>
   <trkpt lat="38.73183" lon="-9.10492">
    <ele>8.350000000000001</ele>
   </trkpt>
   <trkpt lat="38.732260000000004" lon="-9.10467">
    <ele>8.110000000000001</ele>
   </trkpt>
   <trkpt lat="38.73281" lon="-9.10439">
    <ele>8.190000000000001</ele>
   </trkpt>
   <trkpt lat="38.73351" lon="-9.10416">
    <ele>8.07</ele>
   </trkpt>
   <trkpt lat="38.73429" lon="-9.10393">
    <ele>7.840000000000002</ele>
   </trkpt>
   <trkpt lat="38.73505000017682" lon="-9.103740002015872">
    <ele>7.8500000000000005</ele>
   </trkpt>
   <trkpt lat="38.73581" lon="-9.10355">
    <ele>7.9700000000000015</ele>
   </trkpt>
   <trkpt lat="38.736320000000006" lon="-9.10341">
    <ele>7.840000000000002</ele>
   </trkpt>
   <trkpt lat="38.737090000440496" lon="-9.103105003270672">
    <ele>7.9</ele>
   </trkpt>
   <trkpt lat="38.737860000000005" lon="-9.1028">
    <ele>7.94</ele>
   </trkpt>
   <trkpt lat="38.738080000000004" lon="-9.1027">
    <ele>7.8900000000000015</ele>
   </trkpt>
   <trkpt lat="38.73874" lon="-9.102360000000001">
    <ele>7.95</ele>
   </trkpt>
   <trkpt lat="38.738730000000004" lon="-9.10237">
    <ele>7.95</ele>
   </trkpt>
   <trkpt lat="38.73935000176775" lon="-9.101992509864331">
    <ele>7.88</ele>
   </trkpt>
   <trkpt lat="38.7399700023215" lon="-9.101615013174237">
    <ele>7.7700000000000005</ele>
   </trkpt>
   <trkpt lat="38.74059000166123" lon="-9.101237509929467">
    <ele>7.750000000000001</ele>
   </trkpt>
   <trkpt lat="38.74121" lon="-9.10086">
    <ele>7.6000000000000005</ele>
   </trkpt>
   <trkpt lat="38.74163" lon="-9.10054">
    <ele>7.580000000000001</ele>
   </trkpt>
   <trkpt lat="38.741780000000006" lon="-9.10036">
    <ele>7.580000000000001</ele>
   </trkpt>
   <trkpt lat="38.742090000000005" lon="-9.0999">
    <ele>7.51</ele>
   </trkpt>
   <trkpt lat="38.74222" lon="-9.09983">
    <ele>7.430000000000001</ele>
   </trkpt>
   <trkpt lat="38.74226" lon="-9.09975">
    <ele>7.430000000000001</ele>
   </trkpt>
   <trkpt lat="38.74231" lon="-9.0997">
    <ele>7.430000000000001</ele>
   </trkpt>
   <trkpt lat="38.742430000000006" lon="-9.099630000000001">
    <ele>7.51</ele>
   </trkpt>
   <trkpt lat="38.74237" lon="-9.09952">
    <ele>7.3500000000000005</ele>
   </trkpt>
   <trkpt lat="38.74237" lon="-9.09942">
    <ele>7.280000000000001</ele>
   </trkpt>
   <trkpt lat="38.742520000000006" lon="-9.0991">
    <ele>7.180000000000001</ele>
   </trkpt>
   <trkpt lat="38.742610000000006" lon="-9.09904">
    <ele>7.04</ele>
   </trkpt>
   <trkpt lat="38.74275" lon="-9.09876">
    <ele>7.0200000000000005</ele>
   </trkpt>
   <trkpt lat="38.742940000000004" lon="-9.09853">
    <ele>7.220000000000001</ele>
   </trkpt>
   <trkpt lat="38.74315" lon="-9.09834">
    <ele>7.450000000000001</ele>
   </trkpt>
   <trkpt lat="38.74347" lon="-9.098120000000002">
    <ele>8.010000000000002</ele>
   </trkpt>
   <trkpt lat="38.743430000000004" lon="-9.09774">
    <ele>6.970000000000001</ele>
   </trkpt>
   <trkpt lat="38.74333" lon="-9.097420000000001">
    <ele>6.010000000000001</ele>
   </trkpt>
   <trkpt lat="38.74313" lon="-9.097480000000001">
    <ele>5.91</ele>
   </trkpt>
   <trkpt lat="38.743594999869494" lon="-9.097355000866989">
    <ele>5.970000000000001</ele>
   </trkpt>
   <trkpt lat="38.744060000000005" lon="-9.097230000000001">
    <ele>5.930000000000001</ele>
   </trkpt>
   <trkpt lat="38.74419" lon="-9.097800000000001">
    <ele>7.580000000000001</ele>
   </trkpt>
   <trkpt lat="38.744800000199874" lon="-9.09763000143094">
    <ele>7.69</ele>
   </trkpt>
   <trkpt lat="38.74541" lon="-9.09746">
    <ele>7.8900000000000015</ele>
   </trkpt>
   <trkpt lat="38.744780000223436" lon="-9.09763333640099">
    <ele>7.69</ele>
   </trkpt>
   <trkpt lat="38.74415000019091" lon="-9.097806669743232">
    <ele>7.5200000000000005</ele>
   </trkpt>
   <trkpt lat="38.743520000000004" lon="-9.097980000000002">
    <ele>7.320000000000001</ele>
   </trkpt>
   <trkpt lat="38.74345" lon="-9.097990000000001">
    <ele>7.410000000000001</ele>
   </trkpt>
   <trkpt lat="38.74347" lon="-9.09815">
    <ele>7.99</ele>
   </trkpt>
   <trkpt lat="38.743700000000004" lon="-9.099010000000002">
    <ele>8.25</ele>
   </trkpt>
   <trkpt lat="38.74307" lon="-9.09928">
    <ele>7.6000000000000005</ele>
   </trkpt>
   <trkpt lat="38.74289" lon="-9.09861">
    <ele>7.24</ele>
   </trkpt>
   <trkpt lat="38.743120000000005" lon="-9.09838">
    <ele>7.3500000000000005</ele>
   </trkpt>
   <trkpt lat="38.74329" lon="-9.09824">
    <ele>7.760000000000001</ele>
   </trkpt>
   <trkpt lat="38.74347" lon="-9.09815">
    <ele>7.99</ele>
   </trkpt>
   <trkpt lat="38.743430000000004" lon="-9.09774">
    <ele>6.970000000000001</ele>
   </trkpt>
   <trkpt lat="38.74333" lon="-9.097420000000001">
    <ele>6.010000000000001</ele>
   </trkpt>
   <trkpt lat="38.744012500450545" lon="-9.097235005301306">
    <ele>5.930000000000001</ele>
   </trkpt>
   <trkpt lat="38.74469500060954" lon="-9.097050007066123">
    <ele>5.970000000000001</ele>
   </trkpt>
   <trkpt lat="38.74537750047695" lon="-9.096865005294307">
    <ele>6.07</ele>
   </trkpt>
   <trkpt lat="38.74606" lon="-9.096680000000001">
    <ele>6.050000000000001</ele>
   </trkpt>
  </trkseg>
 </trk>
</gpx>
